INTELSAT 35E (IS-35E)   
1 42818U 17041A   23118.46307528 -.00000238  00000+0  00000+0 0  9998
2 42818   0.0183 264.4889 0001930 121.5607 322.3337  1.00273300 21319
COSMOS 2520             
1 42907U 17046A   23117.83372404  .00000136  00000+0  00000+0 0  9993
2 42907   0.0231 126.0369 0000866 337.7034  96.9713  1.00272419 20894
TDRS 13                 
1 42915U 17047A   23117.82247979 -.00000104  00000+0  00000+0 0  9996
2 42915   4.0642 337.1733 0017764 107.9696  55.0156  1.00273210 20885
QZS-3 (MICHIBIKI-3)     
1 42917U 17048A   23117.77828726 -.00000349  00000+0  00000+0 0  9999
2 42917   0.0531 195.1010 0002336 196.1348 231.4762  1.00272155 20872
AMAZONAS 5              
1 42934U 17053A   23118.23805271 -.00000283  00000+0  00000+0 0  9993
2 42934   0.0341 314.5530 0004252  50.4046 235.6885  1.00272997 20630
ASIASAT 9               
1 42942U 17057A   23118.18996573 -.00000360  00000+0  00000+0 0  9992
2 42942   0.0075 260.0590 0002627 135.8978  10.4472  1.00272412 20453
INTELSAT 37E (IS-37E)   
1 42950U 17059A   23118.07769045 -.00000141  00000+0  00000+0 0  9990
2 42950   0.0096 227.8762 0002297 178.6129 179.2773  1.00272707 20559
BSAT-4A                 
1 42951U 17059B   23117.85336351 -.00000351  00000+0  00000+0 0  9999
2 42951   0.0842  65.1847 0004954 339.3795 228.0624  1.00271339 20450
QZS-4 (MICHIBIKI-4)     
1 42965U 17062A   23117.83846830 -.00000334  00000+0  00000+0 0  9995
2 42965  40.6789 358.0865 0746935 270.6644  27.9946  1.00268746 20317
SES-11 (ECHOSTAR 105)   
1 42967U 17063A   23117.66044894 -.00000090  00000+0  00000+0 0  9998
2 42967   0.0014 167.0270 0001326 202.5078 338.6592  1.00271604 20306
KOREASAT 5A             
1 42984U 17067A   23117.77558514 -.00000359  00000+0  00000+0 0  9990
2 42984   0.0049  66.4598 0001538 325.8254 215.5647  1.00270723 20134
ALCOMSAT 1              
1 43039U 17078A   23117.81977769 -.00000187  00000+0  00000+0 0  9995
2 43039   0.0142  10.8262 0002238  25.9008  89.1418  1.00270758 19782
SBIRS GEO-3 (USA 282)   
1 43162U 18009A   23117.92410670 -.00000296  00000+0  00000+0 0  9993
2 43162   2.9733 323.7565 0001910  62.8106 300.7479  1.00272126 19345
AL YAH 3                
1 43174U 18012A   23117.74906170 -.00000157  00000+0  00000+0 0  9991
2 43174   0.1516  93.1580 0002528 338.1601  33.7047  1.00270320 19345
SES-14                  
1 43175U 18012B   23117.81524512 -.00000279  00000+0  00000+0 0  9991
2 43175   0.0140 303.1363 0000793  78.7735  79.6195  1.00272172 19551
GOES 17                 
1 43226U 18022A   23118.46813045 -.00000091  00000+0  00000+0 0  9995
2 43226   0.0137  95.9213 0001795 323.2306 220.8159  1.00272096 18946
HISPASAT 30W-6          
1 43228U 18023A   23117.81873171 -.00000217  00000+0  00000+0 0  9992
2 43228   0.0465  53.8648 0006003 344.5845  81.8437  1.00271404 19002
SUPERBIRD-B3            
1 43271U 18033A   23117.78526045 -.00000093  00000+0  00000+0 0  9994
2 43271   0.0178 237.9022 0001021 145.2091 277.0724  1.00271489 18556
HYLAS 4                 
1 43272U 18033B   23117.74635959 -.00000234  00000+0  00000+0 0  9993
2 43272   0.0710 269.4023 0001601 128.9014  52.3619  1.00273377 18574
IRNSS-1I                
1 43286U 18035A   23117.50951984  .00000109  00000+0  00000+0 0  9993
2 43286  28.9609  92.2647 0019210 187.8309 173.5552  1.00274510 18577
USA 283                 
1 43339U 18036A   23113.52715493 -.00000320  00000+0  00000+0 0  9990
2 43339   0.0026 259.1042 0000433  87.5802 188.4917  1.00271097  7209
COSMOS 2526             
1 43432U 18037A   23117.34845279 -.00000346  00000+0  00000+0 0  9993
2 43432   0.0217 124.9819 0001019 338.8608   4.7400  1.00272074 18477
APSTAR 6C               
1 43450U 18041A   23117.92306071 -.00000318  00000+0  00000+0 0  9993
2 43450   0.0293 280.8919 0001105 110.3774 290.6667  1.00274326 18346
BANGABANDHUSAT-1        
1 43463U 18044A   23118.35025503 -.00000363  00000+0  00000+0 0  9996
2 43463   0.0072 198.2816 0001819 184.0195  78.9408  1.00273599 18240
SES-12                  
1 43488U 18049A   23118.41715363 -.00000270  00000+0  00000+0 0  9992
2 43488   0.0408  75.8301 0001626 233.0848 152.3884  1.00272480 17922
FENGYUN 2H              
1 43491U 18050A   23117.76878628 -.00000128  00000+0  00000+0 0  9991
2 43491   1.9484  91.7693 0002319  68.8381  50.8315  1.00274192 18011
BEIDOU-2 IGSO-7         
1 43539U 18057A   23118.57925640 -.00000108  00000+0  00000+0 0  9996
2 43539  55.0998 172.9611 0060070 230.3304 134.0557  1.00270122 17678
TELSTAR 19V             
1 43562U 18059A   23117.74051956 -.00000281  00000+0  00000+0 0  9994
2 43562   0.0213 179.7541 0001642 285.4061 313.8988  1.00270802 17672
TELKOM 4 (MERAH PUTIH)  
1 43587U 18064A   23117.99538435 -.00000345  00000+0  00000+0 0  9997
2 43587   0.0046  72.9400 0001702 350.9075 258.2053  1.00273510 17372
TELSTAR 18V (APSTAR 5C) 
1 43611U 18069A   23118.49741818 -.00000294  00000+0  00000+0 0  9990
2 43611   0.0119 248.8100 0001964 145.6661 138.8006  1.00270830 17128
AZERSPACE 2 (IS-38)     
1 43632U 18074A   23118.47885209  .00000136  00000+0  00000+0 0  9994
2 43632   0.0168 248.9413 0001327 142.4383  42.3159  1.00271185 16954
HORIZONS-3E             
1 43633U 18074B   23117.78665507 -.00000031  00000+0  00000+0 0  9990
2 43633   0.0445  91.0990 0001198 202.2822  14.2996  1.00272792 16827
AEHF-4 (USA 288)        
1 43651U 18079A   23118.45645076 -.00000277  00000+0  00000+0 0  9991
2 43651   2.0130 323.2755 0003059  74.4977 275.1881  1.00270384 16801
BEIDOU-3 G1             
1 43683U 18085A   23117.85643583 -.00000278  00000+0  00000+0 0  9998
2 43683   1.2465 134.5338 0004293 308.6377 220.8041  1.00269373 16558
GSAT-29                 
1 43698U 18089A   23117.98154053  .00000084  00000+0  00000+0 0  9995
2 43698   0.0174 232.3753 0003073 144.3140 247.3894  1.00275930 16325
ES'HAIL 2               
1 43700U 18090A   23117.81097446  .00000143  00000+0  00000+0 0  9991
2 43700   0.0090 210.4327 0001145 202.8031 120.0296  1.00272987 16420
GEO-KOMPSAT-2A          
1 43823U 18100A   23118.49550056 -.00000344  00000+0  00000+0 0  9999
2 43823   0.0467  72.5684 0001845 349.0553 101.2293  1.00272615 16175
GSAT-11                 
1 43824U 18100B   23118.48469213 -.00000077  00000+0  00000+0 0  9996
2 43824   0.0361 271.3978 0006527 155.9828  37.3084  1.00272028 16147
GSAT-7A                 
1 43864U 18105A   23117.80327376  .00000025  00000+0  00000+0 0  9995
2 43864   0.0497  92.2459 0001927 300.8859 174.3528  1.00271588 15952
COSMOS 2533             
1 43867U 18107A   23118.07618873 -.00000039  00000+0  00000+0 0  9991
2 43867   0.0349  73.1689 0000283 185.3304  54.7082  1.00270528 15925
TJS-3                   
1 43874U 18110A   23118.73799304 -.00000016  00000+0  00000+0 0  9990
2 43874   0.1039  94.2972 0002033 346.1369 207.1330  1.00496457 15990
CHINASAT 2D (ZX 2D)     
1 43920U 19001A   23117.77889741 -.00000338  00000+0  00000+0 0  9997
2 43920   0.0121 244.5542 0000805 254.7340 126.6254  1.00270695 15853
HELLAS-SAT 4 & SGS-1    
1 44034U 19007A   23118.47763181  .00000153  00000+0  00000+0 0  9991
2 44034   0.0712 117.1674 0003870  16.2549 293.7070  1.00271893 15868
GSAT-31                 
1 44035U 19007B   23118.03045488  .00000124  00000+0  00000+0 0  9995
2 44035   0.0962  94.1709 0002519 248.0683 292.3798  1.00272861 15477
NUSANTARA SATU          
1 44048U 19009A   23117.78212250 -.00000235  00000+0  00000+0 0  9999
2 44048   0.0328 133.3585 0002996 329.9223 179.7896  1.00272073 15273
CHINASAT 6C (ZX 6C)     
1 44067U 19012A   23117.56388559 -.00000339  00000+0  00000+0 0  9991
2 44067   0.0420 273.0454 0004059  30.9887 244.1878  1.00268155 15230
WGS 10 (USA 291)        
1 44071U 19014A   23117.80327376  .00000045  00000+0  00000+0 0  9998
2 44071   0.0134 247.6672 0001653 355.8888 321.4476  1.00273194 15112
TIANLIAN 2-01           
1 44076U 19017A   23117.76904778 -.00000137  00000+0  00000+0 0  9991
2 44076   0.0447 286.5609 0030785 228.2457  57.5518  1.00272996 15112
ARABSAT-6A              
1 44186U 19021A   23118.47597566  .00000153  00000+0  00000+0 0  9997
2 44186   0.0509 338.7374 0001635  44.8665  34.4383  1.00266974 14669
BEIDOU-3 IGSO-1         
1 44204U 19023A   23117.70521781 -.00000218  00000+0  00000+0 0  9994
2 44204  57.0301  49.6142 0018968 207.6721 331.2857  1.00267996 14863
BEIDOU-2 G8             
1 44231U 19027A   23117.85351045 -.00000247  00000+0  00000+0 0  9990
2 44231   1.6351  80.9971 0004299 133.8490  92.5510  1.00270482 14571
YAMAL 601               
1 44307U 19031A   23116.03660493  .00000117  00000+0  00000+0 0  9993
2 44307   0.0089 220.2489 0002200 176.7549 238.9440  1.00271773 14415
AT&T T-16               
1 44333U 19034A   23118.21626253 -.00000117  00000+0  00000+0 0  9994
2 44333   0.0174 260.0826 0001097 323.9948 328.8432  1.00277548 14133
EUTELSAT 7C             
1 44334U 19034B   23118.25620431  .00000048  00000+0  00000+0 0  9993
2 44334   0.0647 233.0690 0003208 144.6685 297.4758  1.00270330 14639
BEIDOU-3 IGSO-2         
1 44337U 19035A   23117.60117258 -.00000111  00000+0  00000+0 0  9995
2 44337  55.1378 168.9338 0030505 200.2802 181.2795  1.00261333 14206
COSMOS 2539             
1 44457U 19048A   23118.23868733  .00000081  00000+0  00000+0 0  9998
2 44457   0.0425 100.7642 0000423 127.9439  85.1555  1.00272447 13731
EDRS-C                  
1 44475U 19049A   23117.31606145  .00000153  00000+0  00000+0 0  9994
2 44475   0.0635 259.0852 0000779 135.8580 325.0602  1.00271794 13692
INTELSAT 39 (IS-39)     
1 44476U 19049B   23118.49216227  .00000033  00000+0  00000+0 0  9990
2 44476   0.0180 258.9906 0000894 306.9623 249.3737  1.00273970 13643
AMOS-17                 
1 44479U 19050A   23117.82814550  .00000108  00000+0  00000+0 0  9997
2 44479   0.0118 253.1323 0001397 144.3518 133.1767  1.00272228 13685
